      2.10          N: GNSS NAV DATA                        RINEX VERSION / TYPE
fic2rin                                 05/06/2018 00:07:48 PGM / RUN BY / DATE
                                                            END OF HEADER
13 18  5  5  2  0  0.0-9.470945224166e-05 2.273736754432e-13 0.000000000000e+00
    1.160000000000e+02 1.656250000000e+00 4.302679223860e-09-2.419082402343e+00
    1.136213541031e-07 3.449456300586e-03 7.970258593559e-06 5.153656568527e+03
    5.256000000000e+05 6.332993507385e-08-4.143092695298e-02-3.352761268616e-08
    9.688895320809e-01 2.324687500000e+02 1.590785234202e+00-7.775323873449e-09
   -4.478757986819e-10 1.000000000000e+00 1.999000000000e+03 0.000000000000e+00
    2.400000000000e+00 0.000000000000e+00-1.117587089539e-08 1.160000000000e+02
    5.184060000000e+05 4.000000000000e+00
10 18  5  5  2  0  0.0 1.831264235079e-04 2.046363078989e-12 0.000000000000e+00
    6.300000000000e+01 9.781250000000e+00 4.818414992039e-09 9.709082961248e-01
    6.686896085739e-07 3.504805499688e-03 6.960704922676e-06 5.153661651611e+03
    5.256000000000e+05 1.303851604462e-08-1.210211121831e+00 3.725290298462e-08
    9.606580343717e-01 2.439062500000e+02-2.748345372599e+00-8.127124241632e-09
    1.275053111080e-10 1.000000000000e+00 1.999000000000e+03 0.000000000000e+00
    2.400000000000e+00 0.000000000000e+00 1.862645149231e-09 6.300000000000e+01
    5.184060000000e+05 4.000000000000e+00
 6 18  5  5  2  0  0.0 4.053451120853e-04-2.160049916711e-12 0.000000000000e+00
    7.700000000000e+01-6.568750000000e+01 4.288392914492e-09-3.022165138886e+00
   -3.224238753319e-06 1.203658292070e-03 9.480863809586e-06 5.153622615814e+03
    5.256000000000e+05 1.303851604462e-08-2.258124318410e+00 7.264316082001e-08
    9.707353133765e-01 2.034375000000e+02-1.107164573803e+00-7.805682280855e-09
    2.075086435679e-10 1.000000000000e+00 1.999000000000e+03 0.000000000000e+00
    2.400000000000e+00 0.000000000000e+00 4.656612873077e-09 7.700000000000e+01
    5.184060000000e+05 4.000000000000e+00
 9 18  5  5  2  0  0.0 5.130716599524e-04 9.094947017729e-13 0.000000000000e+00
    1.090000000000e+02-2.375000000000e+00 4.820915096179e-09-8.554494002155e-01
   -1.732259988785e-07 9.924045298249e-04 7.392838597298e-06 5.153627628326e+03
    5.256000000000e+05-5.587935447693e-09-1.727298521717e-01 4.097819328308e-08
    9.530610978602e-01 2.319687500000e+02 1.844836074999e+00-8.086765417668e-09
   -3.753727786401e-10 1.000000000000e+00 1.999000000000e+03 0.000000000000e+00
    2.400000000000e+00 0.000000000000e+00 9.313225746155e-10 1.090000000000e+02
    5.184060000000e+05 4.000000000000e+00
29 18  5  5  2  0  0.0 4.553659819067e-04-6.252776074689e-12 0.000000000000e+00
    3.100000000000e+01-6.656250000000e+01 4.114814255673e-09 6.309312152176e-02
   -3.617256879807e-06 7.342873141170e-04 5.189329385757e-06 5.153703323364e+03
    5.256000000000e+05 2.421438694000e-08 3.041913365547e+00-3.911554813385e-08
    9.841103637582e-01 2.954687500000e+02 1.051497584329e+00-7.960688737497e-09
   -4.893060958486e-11 1.000000000000e+00 1.999000000000e+03 0.000000000000e+00
    2.400000000000e+00 0.000000000000e+00-1.024454832077e-08 3.100000000000e+01
    5.184060000000e+05 4.000000000000e+00
23 18  5  5  2  0  0.0-2.174014225602e-04 3.410605131648e-13 0.000000000000e+00
    1.030000000000e+02-6.312500000000e+00 4.925562312298e-09-2.321446812321e+00
   -4.861503839493e-07 1.243071258068e-02 7.268041372299e-06 5.153800447464e+03
    5.256000000000e+05 9.685754776001e-08-1.741483443547e-01-1.080334186554e-07
    9.438873843554e-01 2.281875000000e+02-2.371653350344e+00-7.976046520067e-09
   -2.735828243942e-10 1.000000000000e+00 1.999000000000e+03 0.000000000000e+00
    2.400000000000e+00 0.000000000000e+00-2.002343535423e-08 1.030000000000e+02
    5.184060000000e+05 4.000000000000e+00
21 18  5  5  2  0  0.0-3.991462290287e-04 4.774847184308e-12 0.000000000000e+00
    7.600000000000e+01-6.650000000000e+01 4.946277460882e-09 1.284738740217e+00
   -3.850087523460e-06 2.443798817694e-02 9.177252650261e-06 5.153718770981e+03
    5.256000000000e+05-2.272427082062e-07-2.303416000282e+00-6.053596735001e-07
    9.436385112688e-01 2.018125000000e+02-1.562540013606e+00-8.295702692172e-09
    2.082229590363e-10 1.000000000000e+00 1.999000000000e+03 0.000000000000e+00
    2.400000000000e+00 0.000000000000e+00-1.024454832077e-08 7.600000000000e+01
    5.184060000000e+05 4.000000000000e+00
17 18  5  5  2  0  0.0-1.009837724268e-04 3.524291969370e-12 0.000000000000e+00
    8.000000000000e+01-6.743750000000e+01 4.235533569831e-09-1.158048065465e+00
   -3.201887011528e-06 1.234601170290e-02 4.790723323822e-06 5.153555475235e+03
    5.256000000000e+05-8.381903171539e-08 3.031351638295e+00 3.278255462646e-07
    9.828368467568e-01 3.010312500000e+02-1.778773763741e+00-8.108909197188e-09
   -5.393081786361e-11 1.000000000000e+00 1.999000000000e+03 0.000000000000e+00
    2.400000000000e+00 0.000000000000e+00-1.117587089539e-08 8.000000000000e+01
    5.184060000000e+05 4.000000000000e+00
26 18  5  5  2  0  0.0-1.600757241249e-04 1.284661266254e-11 0.000000000000e+00
    7.000000000000e+01 6.159375000000e+01 4.630550023852e-09 7.961810034032e-01
    3.235414624214e-06 2.800699905492e-03 3.682449460030e-06 5.153652366638e+03
    5.256000000000e+05 6.519258022308e-08 1.916059556851e+00 8.568167686462e-08
    9.557596857872e-01 3.063750000000e+02 1.194809741193e-01-8.288916695223e-09
    1.921508609975e-10 1.000000000000e+00 1.999000000000e+03 0.000000000000e+00
    2.400000000000e+00 0.000000000000e+00 7.450580596924e-09 7.000000000000e+01
    5.184060000000e+05 4.000000000000e+00
31 18  5  5  2  0  0.0 1.238863915205e-04-2.614797267597e-12 0.000000000000e+00
    6.400000000000e+01 7.243750000000e+01 4.160530445650e-09 2.206421128879e+00
    3.829598426819e-06 8.765224716626e-03 9.121373295784e-06 5.153656040192e+03
    5.256000000000e+05-2.607703208923e-08 9.170789555853e-01 8.009374141693e-08
    9.636250019349e-01 2.075937500000e+02-1.320807013257e-01-7.752465778460e-09
   -2.050085394286e-10 1.000000000000e+00 1.999000000000e+03 0.000000000000e+00
    3.400000000000e+00 0.000000000000e+00-1.350417733192e-08 6.400000000000e+01
    5.184060000000e+05 4.000000000000e+00
30 18  5  5  2  0  0.0 7.764808833599e-05-4.092726157978e-12 0.000000000000e+00
    6.300000000000e+01 7.250000000000e+01 4.600548774180e-09 2.517904218509e+00
    3.764405846596e-06 3.322910284624e-03 9.372830390930e-06 5.153749589920e+03
    5.256000000000e+05-5.215406417847e-08 9.385814068144e-01-2.607703208923e-08
    9.445657028958e-01 1.899687500000e+02-3.102519557056e+00-8.029263022462e-09
   -1.782217093638e-10 1.000000000000e+00 1.999000000000e+03 0.000000000000e+00
    2.400000000000e+00 0.000000000000e+00 3.725290298462e-09 6.300000000000e+01
    5.184060000000e+05 4.000000000000e+00
27 18  5  5  2  0  0.0 3.696386702359e-04-5.684341886081e-13 0.000000000000e+00
    7.000000000000e+01-7.353125000000e+01 4.295536069176e-09-1.004715025088e+00
   -3.768131136894e-06 5.903233424760e-03 4.217028617859e-06 5.153682216644e+03
    5.256000000000e+05 7.636845111847e-08 2.977441965998e+00-3.911554813385e-08
    9.775550790471e-01 3.038750000000e+02 4.073545116305e-01-8.101766042504e-09
   -2.107230631757e-11 1.000000000000e+00 1.999000000000e+03 0.000000000000e+00
    2.400000000000e+00 0.000000000000e+00 1.396983861923e-09 7.000000000000e+01
    5.184060000000e+05 4.000000000000e+00
20 18  5  5  2  0  0.0 5.074054934084e-04 9.094947017729e-13 0.000000000000e+00
    8.400000000000e+01 8.562500000000e+00 5.458441651719e-09-2.825144485831e+00
    5.029141902924e-07 4.246796364896e-03 7.240101695061e-06 5.154835344315e+03
    5.256000000000e+05 1.862645149231e-09-1.315527504292e+00 7.823109626770e-08
    9.278709563840e-01 2.224062500000e+02 1.938347435631e+00-8.340704566681e-09
    2.303667385565e-10 1.000000000000e+00 1.999000000000e+03 0.000000000000e+00
    2.400000000000e+00 0.000000000000e+00-8.381903171539e-09 8.400000000000e+01
    5.184060000000e+05 4.000000000000e+00
28 18  5  5  2  0  0.0 7.123635150492e-04 3.410605131648e-12 0.000000000000e+00
    8.100000000000e+01 5.221875000000e+01 4.083027217330e-09-1.397928163033e-01
    2.596527338028e-06 1.950513536576e-02 4.470348358154e-06 5.153680234909e+03
    5.256000000000e+05-3.334134817123e-07 2.020307495631e+00 9.313225746155e-09
    9.858629001184e-01 3.098750000000e+02-1.521047742110e+00-8.357848137923e-09
    2.646538810393e-10 1.000000000000e+00 1.999000000000e+03 0.000000000000e+00
    2.400000000000e+00 0.000000000000e+00-1.117587089539e-08 8.100000000000e+01
    5.184060000000e+05 4.000000000000e+00
24 18  5  5  2  0  0.0-4.933495074511e-05-4.547473508865e-13 0.000000000000e+00
    1.700000000000e+01 5.715625000000e+01 4.582333729736e-09-2.946825914030e+00
    2.972781658173e-06 6.920514628291e-03 9.130686521530e-06 5.153653505325e+03
    5.256000000000e+05-5.587935447693e-09 8.453196112291e-01-9.313225746155e-09
    9.420805005886e-01 1.938125000000e+02 5.434229301463e-01-7.956402844686e-09
   -8.928943354902e-11 1.000000000000e+00 1.999000000000e+03 0.000000000000e+00
    2.400000000000e+00 0.000000000000e+00 2.793967723846e-09 1.700000000000e+01
    5.184360000000e+05 4.000000000000e+00
 4 18  5  5  1 59 44.0 5.826121196151e-05 3.183231456205e-12 0.000000000000e+00
    3.000000000000e+01 5.446875000000e+01 5.463084702263e-09 1.879321486769e-01
    2.838671207428e-06 9.856539312750e-03 3.851950168610e-06 5.153695219040e+03
    5.255840000000e+05-5.029141902924e-08 1.962467177504e+00 1.899898052216e-07
    9.790314574357e-01 3.171562500000e+02 9.204085600595e-01-8.181412217230e-09
    1.714357124141e-10 1.000000000000e+00 1.999000000000e+03 0.000000000000e+00
    2.400000000000e+00 6.300000000000e+01-1.955777406693e-08 3.000000000000e+01
    5.217660000000e+05 4.000000000000e+00
